{
"type": "FeatureCollection",
"name": "points",
"crs": { "type": "name", "properties": { "name": "urn:ogc:def:crs:OGC:1.3:CRS84" } },
"features": [
{ "type": "Feature", "properties": { "field_1": "0", "input_string": "Ackersteinstrasse 186, Zürich", "kreis": "Höngg", "latitude": "47.40081869999999", "longitude": "8.5006896", "postcode": "8049", "type": "Kirchgemeindehaus", "year": "1959.0" }, "geometry": { "type": "Point", "coordinates": [ 8.5006896, 47.400818699999988 ] } },
{ "type": "Feature", "properties": { "field_1": "1", "input_string": "Ackerstrasse 63, Zürich", "kreis": "Industriequartier", "latitude": "47.3839067", "longitude": "8.5335953", "postcode": "8005", "type": "Pfarrhaus ", "year": "" }, "geometry": { "type": "Point", "coordinates": [ 8.5335953, 47.3839067 ] } },
{ "type": "Feature", "properties": { "field_1": "2", "input_string": "Aehrenweg 1, Zürich", "kreis": "Oerlikon", "latitude": "47.4089466", "longitude": "8.53478", "postcode": "8050", "type": "Pfarrhaus ", "year": "1933.0" }, "geometry": { "type": "Point", "coordinates": [ 8.53478, 47.4089466 ] } },
{ "type": "Feature", "properties": { "field_1": "3", "input_string": "Aemtlerstrasse 23, Zürich", "kreis": "Wiedikon", "latitude": "47.3717735", "longitude": "8.5152852", "postcode": "8003", "type": "Gewerbehaus\/Geschäftshaus", "year": "1924.0" }, "geometry": { "type": "Point", "coordinates": [ 8.5152852, 47.3717735 ] } },
{ "type": "Feature", "properties": { "field_1": "4", "input_string": "Ahornstrasse 2, Zürich", "kreis": "Schwamendingen", "latitude": "47.4052543", "longitude": "8.5671106", "postcode": "8051", "type": "Wohnen", "year": "1933.0" }, "geometry": { "type": "Point", "coordinates": [ 8.5671106, 47.4052543 ] } },
{ "type": "Feature", "properties": { "field_1": "5", "input_string": "Albisriederstrasse 391, Zürich", "kreis": "Albisrieden", "latitude": "47.3744605", "longitude": "8.4837592", "postcode": "8047", "type": "Kirche", "year": "1818.0" }, "geometry": { "type": "Point", "coordinates": [ 8.4837592, 47.3744605 ] } },
{ "type": "Feature", "properties": { "field_1": "6", "input_string": "Altwiesenstrasse 181, Zürich", "kreis": "Hirzenbach", "latitude": "47.4020467", "longitude": "8.585837", "postcode": "8051", "type": "Wohnen", "year": "" }, "geometry": { "type": "Point", "coordinates": [ 8.585837, 47.4020467 ] } },
{ "type": "Feature", "properties": { "field_1": "7", "input_string": "Am Suteracher 2, Zürich", "kreis": "Altstetten", "latitude": "47.38966990000001", "longitude": "8.4723604", "postcode": "8048", "type": "Kirche ", "year": "1982.0" }, "geometry": { "type": "Point", "coordinates": [ 8.4723604, 47.3896699 ] } },
{ "type": "Feature", "properties": { "field_1": "8", "input_string": "Am Suteracher 2, Zürich", "kreis": "Altstetten", "latitude": "47.38966990000001", "longitude": "8.4723604", "postcode": "8048", "type": "Baurecht", "year": "" }, "geometry": { "type": "Point", "coordinates": [ 8.4723604, 47.3896699 ] } },
{ "type": "Feature", "properties": { "field_1": "9", "input_string": "Am Suteracher 65, Zürich", "kreis": "Altstetten", "latitude": "47.391315", "longitude": "8.468606", "postcode": "8048", "type": "Baurecht", "year": "" }, "geometry": { "type": "Point", "coordinates": [ 8.468606, 47.391315 ] } },
{ "type": "Feature", "properties": { "field_1": "10", "input_string": "Am Wettingertobel 38, Zürich", "kreis": "Höngg", "latitude": "47.4015507", "longitude": "8.4969138", "postcode": "8049", "type": "Pfarrhaus ", "year": "1450.0" }, "geometry": { "type": "Point", "coordinates": [ 8.4969138, 47.4015507 ] } },
{ "type": "Feature", "properties": { "field_1": "11", "input_string": "Am Wettingertobel 40, Zürich", "kreis": "Höngg", "latitude": "47.4017997", "longitude": "8.497336899999999", "postcode": "8049", "type": "Kirche ", "year": "1703.0" }, "geometry": { "type": "Point", "coordinates": [ 8.4973369, 47.4017997 ] } },
{ "type": "Feature", "properties": { "field_1": "12", "input_string": "Aprikosenstrasse 25, Zürich", "kreis": "Schwamendingen", "latitude": "47.4067559", "longitude": "8.5693859", "postcode": "8051", "type": "Pfarrhaus ", "year": "1910.0" }, "geometry": { "type": "Point", "coordinates": [ 8.5693859, 47.4067559 ] } },
{ "type": "Feature", "properties": { "field_1": "13", "input_string": "Asylstrasse 36, Zürich", "kreis": "Hottingen", "latitude": "47.36839819999999", "longitude": "8.558570699999999", "postcode": "8032", "type": "Kirchgemeindehaus ", "year": "1959.0" }, "geometry": { "type": "Point", "coordinates": [ 8.5585707, 47.368398199999987 ] } },
{ "type": "Feature", "properties": { "field_1": "14", "input_string": "Auf der Egg 9, Zürich", "kreis": "Wollishofen", "latitude": "47.3415997", "longitude": "8.5319857", "postcode": "8038", "type": "Kirche ", "year": "1935.0" }, "geometry": { "type": "Point", "coordinates": [ 8.5319857, 47.3415997 ] } },
{ "type": "Feature", "properties": { "field_1": "15", "input_string": "Auf der Mauer 6, Zürich", "kreis": "Predigern", "latitude": "47.3771261", "longitude": "8.5450249", "postcode": "8001", "type": "Wohnen", "year": "1888.0" }, "geometry": { "type": "Point", "coordinates": [ 8.5450249, 47.3771261 ] } },
{ "type": "Feature", "properties": { "field_1": "16", "input_string": "Auhofstrasse 14, Zürich", "kreis": "Schwamendingen", "latitude": "47.40644", "longitude": "8.569279", "postcode": "8051", "type": "Pfarrhaus ", "year": "1968.0" }, "geometry": { "type": "Point", "coordinates": [ 8.569279, 47.40644 ] } },
{ "type": "Feature", "properties": { "field_1": "17", "input_string": "Ausstellungsstrasse 89, Zürich", "kreis": "Industriequartier", "latitude": "47.3839778", "longitude": "8.5336895", "postcode": "8005", "type": "Pfarrhaus", "year": "1898.0" }, "geometry": { "type": "Point", "coordinates": [ 8.5336895, 47.3839778 ] } },
{ "type": "Feature", "properties": { "field_1": "18", "input_string": "Bahnhaldenstrasse 29, Zürich", "kreis": "Seebach", "latitude": "47.4191325", "longitude": "8.542933999999999", "postcode": "8052", "type": "Wohnen", "year": "" }, "geometry": { "type": "Point", "coordinates": [ 8.542934, 47.4191325 ] } },
{ "type": "Feature", "properties": { "field_1": "19", "input_string": "Bändlistrasse 15, Zürich", "kreis": "Altstetten", "latitude": "47.3949747", "longitude": "8.489564999999999", "postcode": "8064", "type": "Kirche", "year": "1990.0" }, "geometry": { "type": "Point", "coordinates": [ 8.489565, 47.3949747 ] } },
{ "type": "Feature", "properties": { "field_1": "20", "input_string": "Bauherrenstrasse 53, Zürich", "kreis": "Höngg", "latitude": "47.4017068", "longitude": "8.4975155", "postcode": "8049", "type": "Kirchgemeindehaus ", "year": "1886.0" }, "geometry": { "type": "Point", "coordinates": [ 8.4975155, 47.4017068 ] } },
{ "type": "Feature", "properties": { "field_1": "21", "input_string": "Baumackerstrasse 19, Zürich", "kreis": "Oerlikon", "latitude": "47.4084251", "longitude": "8.545019", "postcode": "8050", "type": "Kirchgemeindehaus", "year": "1952.0" }, "geometry": { "type": "Point", "coordinates": [ 8.545019, 47.4084251 ] } },
{ "type": "Feature", "properties": { "field_1": "22", "input_string": "Bederstrasse 25, Zürich", "kreis": "Enge", "latitude": "47.3639338", "longitude": "8.529908599999999", "postcode": "8002", "type": "Kirchgemeindehaus ", "year": "1893.0" }, "geometry": { "type": "Point", "coordinates": [ 8.5299086, 47.3639338 ] } },
{ "type": "Feature", "properties": { "field_1": "23", "input_string": "Bederstrasse 31, Zürich", "kreis": "Enge", "latitude": "47.3639581", "longitude": "8.5294133", "postcode": "8002", "type": "Baurecht", "year": "" }, "geometry": { "type": "Point", "coordinates": [ 8.5294133, 47.3639581 ] } },
{ "type": "Feature", "properties": { "field_1": "24", "input_string": "Bernerstrasse 152, Zürich", "kreis": "Altstetten", "latitude": "47.3944656", "longitude": "8.4891708", "postcode": "8064", "type": "Baurecht", "year": "" }, "geometry": { "type": "Point", "coordinates": [ 8.4891708, 47.3944656 ] } },
{ "type": "Feature", "properties": { "field_1": "25", "input_string": "Blaufahnenstrasse 10, Zürich", "kreis": "Grossmünster", "latitude": "47.3706535", "longitude": "8.5452795", "postcode": "8001", "type": "Gewerbehaus\/Geschäftshaus", "year": "1812.0" }, "geometry": { "type": "Point", "coordinates": [ 8.5452795, 47.3706535 ] } },
{ "type": "Feature", "properties": { "field_1": "26", "input_string": "Blümlisalpstrasse 61, Zürich", "kreis": "Oberstrass", "latitude": "47.3910513", "longitude": "8.548579799999999", "postcode": "8006", "type": "Pfarrhaus ", "year": "1925.0" }, "geometry": { "type": "Point", "coordinates": [ 8.5485798, 47.3910513 ] } },
{ "type": "Feature", "properties": { "field_1": "27", "input_string": "Borrweg 71, Zürich", "kreis": "Friesenberg", "latitude": "47.3608561", "longitude": "8.5057247", "postcode": "8055", "type": "Kirchgemeindehaus", "year": "1948.0" }, "geometry": { "type": "Point", "coordinates": [ 8.5057247, 47.3608561 ] } },
{ "type": "Feature", "properties": { "field_1": "28", "input_string": "Borrweg 75, Zürich", "kreis": "Friesenberg", "latitude": "47.3607157", "longitude": "8.5053538", "postcode": "8055", "type": "Pfarrhaus ", "year": "1941.0" }, "geometry": { "type": "Point", "coordinates": [ 8.5053538, 47.3607157 ] } },
{ "type": "Feature", "properties": { "field_1": "29", "input_string": "Borrweg 79, Zürich", "kreis": "Friesenberg", "latitude": "47.3604493", "longitude": "8.5050599", "postcode": "8055", "type": "Wohnen", "year": "1956.0" }, "geometry": { "type": "Point", "coordinates": [ 8.5050599, 47.3604493 ] } },
{ "type": "Feature", "properties": { "field_1": "30", "input_string": "Brahmsstrasse 100, Zürich", "kreis": "Sihlfeld", "latitude": "47.37892890000001", "longitude": "8.5022001", "postcode": "8003", "type": "Kirchgemeindehaus", "year": "1952.0" }, "geometry": { "type": "Point", "coordinates": [ 8.5022001, 47.378928900000012 ] } },
{ "type": "Feature", "properties": { "field_1": "31", "input_string": "Brahmsstrasse 106, Zürich", "kreis": "Sihlfeld", "latitude": "47.3786176", "longitude": "8.5018098", "postcode": "8003", "type": "Kirche ", "year": "1964.0" }, "geometry": { "type": "Point", "coordinates": [ 8.5018098, 47.3786176 ] } },
{ "type": "Feature", "properties": { "field_1": "32", "input_string": "Brahmsstrasse 96, Zürich", "kreis": "Sihlfeld", "latitude": "47.3787016", "longitude": "8.5024604", "postcode": "8003", "type": "Pfarrhaus ", "year": "1964.0" }, "geometry": { "type": "Point", "coordinates": [ 8.5024604, 47.3787016 ] } },
{ "type": "Feature", "properties": { "field_1": "33", "input_string": "Bühlstrasse 11, Zürich", "kreis": "Wiedikon", "latitude": "47.3675143", "longitude": "8.5157685", "postcode": "8055", "type": "Kirchgemeindehaus", "year": "1953.0" }, "geometry": { "type": "Point", "coordinates": [ 8.5157685, 47.3675143 ] } },
{ "type": "Feature", "properties": { "field_1": "34", "input_string": "Buhnrain 1, Zürich", "kreis": "Seebach", "latitude": "47.4228932", "longitude": "8.5426779", "postcode": "8052", "type": "Kirche", "year": "1664.0" }, "geometry": { "type": "Point", "coordinates": [ 8.5426779, 47.4228932 ] } },
{ "type": "Feature", "properties": { "field_1": "35", "input_string": "Bulingerplatz 1, Zürich", "kreis": "Hard", "latitude": "47.37944710000001", "longitude": "8.516428399999999", "postcode": "8004", "type": "Pfarrhaus", "year": "1947.0" }, "geometry": { "type": "Point", "coordinates": [ 8.5164284, 47.3794471 ] } },
{ "type": "Feature", "properties": { "field_1": "36", "input_string": "Bullingerstrasse 4, Zürich", "kreis": "Hard", "latitude": "47.3799214", "longitude": "8.515463", "postcode": "8004", "type": "Kirche ", "year": "1956.0" }, "geometry": { "type": "Point", "coordinates": [ 8.515463, 47.3799214 ] } },
{ "type": "Feature", "properties": { "field_1": "37", "input_string": "Bürglistrasse 11, Zürich", "kreis": "Enge", "latitude": "47.363132", "longitude": "8.5295343", "postcode": "8002", "type": "Wohnen", "year": "1901.0" }, "geometry": { "type": "Point", "coordinates": [ 8.5295343, 47.363132 ] } },
{ "type": "Feature", "properties": { "field_1": "38", "input_string": "Bürglistrasse 15, Zürich", "kreis": "Enge", "latitude": "47.36224439999999", "longitude": "8.5292596", "postcode": "8002", "type": "Kirche ", "year": "1893.0" }, "geometry": { "type": "Point", "coordinates": [ 8.5292596, 47.362244399999987 ] } },
{ "type": "Feature", "properties": { "field_1": "39", "input_string": "Bürglistrasse 19, Zürich", "kreis": "Enge", "latitude": "47.3621156", "longitude": "8.5294736", "postcode": "8002", "type": "Pfarrhaus ", "year": "1894.0" }, "geometry": { "type": "Point", "coordinates": [ 8.5294736, 47.3621156 ] } },
{ "type": "Feature", "properties": { "field_1": "40", "input_string": "Bürglistrasse 7, Zürich", "kreis": "Enge", "latitude": "47.363402", "longitude": "8.5294596", "postcode": "8002", "type": "Baurecht", "year": "" }, "geometry": { "type": "Point", "coordinates": [ 8.5294596, 47.363402 ] } },
{ "type": "Feature", "properties": { "field_1": "41", "input_string": "Burstwiesenstrasse 36, Zürich", "kreis": "Im Gut", "latitude": "47.3704036", "longitude": "8.5062382", "postcode": "8055", "type": "Kirche ", "year": "1960.0" }, "geometry": { "type": "Point", "coordinates": [ 8.5062382, 47.3704036 ] } },
{ "type": "Feature", "properties": { "field_1": "42", "input_string": "Carmenstrasse 10, Zürich", "kreis": "Hottingen", "latitude": "47.3702248", "longitude": "8.5610383", "postcode": "8032", "type": "Pfarrhaus ", "year": "1909.0" }, "geometry": { "type": "Point", "coordinates": [ 8.5610383, 47.3702248 ] } },
{ "type": "Feature", "properties": { "field_1": "43", "input_string": "Cramerstrasse 7, Zürich", "kreis": "Aussersihl", "latitude": "47.3732747", "longitude": "8.5258935", "postcode": "8004", "type": "Wohnen", "year": "1884.0" }, "geometry": { "type": "Point", "coordinates": [ 8.5258935, 47.3732747 ] } },
{ "type": "Feature", "properties": { "field_1": "44", "input_string": "Dolderstrasse 58, Zürich", "kreis": "Hottingen", "latitude": "47.3707737", "longitude": "8.5614625", "postcode": "8032", "type": "Kirche ", "year": "1900.0" }, "geometry": { "type": "Point", "coordinates": [ 8.5614625, 47.3707737 ] } },
{ "type": "Feature", "properties": { "field_1": "45", "input_string": "Dolderstrasse 60, Zürich", "kreis": "Hottingen", "latitude": "47.37078899999999", "longitude": "8.561625099999999", "postcode": "8032", "type": "Wohnen", "year": "1909.0" }, "geometry": { "type": "Point", "coordinates": [ 8.5616251, 47.370789 ] } },
{ "type": "Feature", "properties": { "field_1": "46", "input_string": "Döltschihalde 4, Zürich", "kreis": "Wiedikon", "latitude": "47.3636709", "longitude": "8.4989667", "postcode": "8055", "type": "Wohnen", "year": "1998.0" }, "geometry": { "type": "Point", "coordinates": [ 8.4989667, 47.3636709 ] } },
{ "type": "Feature", "properties": { "field_1": "47", "input_string": "Döltschiweg 177, Zürich", "kreis": "Friesenberg", "latitude": "47.3652361", "longitude": "8.503108600000001", "postcode": "8055", "type": "Pfarrhaus ", "year": "1945.0" }, "geometry": { "type": "Point", "coordinates": [ 8.5031086, 47.3652361 ] } },
{ "type": "Feature", "properties": { "field_1": "48", "input_string": "Dreispitz 13, Zürich", "kreis": "Saatlen", "latitude": "47.4101922", "longitude": "8.5642944", "postcode": "8050", "type": "Pfarrhaus ", "year": "" }, "geometry": { "type": "Point", "coordinates": [ 8.5642944, 47.4101922 ] } },
{ "type": "Feature", "properties": { "field_1": "49", "input_string": "Fellenbergweg 1, Zürich", "kreis": "Albisrieden", "latitude": "47.3745194", "longitude": "8.4945643", "postcode": "8047", "type": "Pfarrhaus ", "year": "1930.0" }, "geometry": { "type": "Point", "coordinates": [ 8.4945643, 47.3745194 ] } },
{ "type": "Feature", "properties": { "field_1": "50", "input_string": "Fierzgasse 7, Zürich", "kreis": "Industriequartier", "latitude": "47.3832887", "longitude": "8.5323642", "postcode": "8005", "type": "Wohnen", "year": "1875.0" }, "geometry": { "type": "Point", "coordinates": [ 8.5323642, 47.3832887 ] } },
{ "type": "Feature", "properties": { "field_1": "51", "input_string": "Fierzgasse 9, Zürich", "kreis": "Industriequartier", "latitude": "47.3833524", "longitude": "8.532286", "postcode": "8005", "type": "Wohnen", "year": "1876.0" }, "geometry": { "type": "Point", "coordinates": [ 8.532286, 47.3833524 ] } },
{ "type": "Feature", "properties": { "field_1": "52", "input_string": "Freiestrasse 142, Zürich", "kreis": "Hottingen", "latitude": "47.3641482", "longitude": "8.5613098", "postcode": "8032", "type": "Wohnen", "year": "1899.0" }, "geometry": { "type": "Point", "coordinates": [ 8.5613098, 47.3641482 ] } },
{ "type": "Feature", "properties": { "field_1": "53", "input_string": "Voltastrasse 12, Zürich", "kreis": "Fluntern", "latitude": "47.3775844", "longitude": "8.556004399999999", "postcode": "8044", "type": "Baurecht", "year": "" }, "geometry": { "type": "Point", "coordinates": [ 8.5560044, 47.3775844 ] } },
{ "type": "Feature", "properties": { "field_1": "54", "input_string": "Gellertstrasse 1, Zürich", "kreis": "Fluntern", "latitude": "47.3769618", "longitude": "8.5567329", "postcode": "8044", "type": "Kirche ", "year": "1919.0" }, "geometry": { "type": "Point", "coordinates": [ 8.5567329, 47.3769618 ] } },
{ "type": "Feature", "properties": { "field_1": "55", "input_string": "Ginsterstrasse 48, Zürich", "kreis": "Albisrieden", "latitude": "47.3760924", "longitude": "8.4913897", "postcode": "8047", "type": "Kirche ", "year": "1949.0" }, "geometry": { "type": "Point", "coordinates": [ 8.4913897, 47.3760924 ] } },
{ "type": "Feature", "properties": { "field_1": "56", "input_string": "Ginsterstrasse 50, Zürich", "kreis": "Albisrieden", "latitude": "47.376272", "longitude": "8.4914125", "postcode": "8047", "type": "Pfarrhaus ", "year": "1929.0" }, "geometry": { "type": "Point", "coordinates": [ 8.4914125, 47.376272 ] } },
{ "type": "Feature", "properties": { "field_1": "57", "input_string": "Glättlistrasse 40, Zürich", "kreis": "Altstetten", "latitude": "47.3896238", "longitude": "8.475247999999999", "postcode": "8048", "type": "Baurecht", "year": "" }, "geometry": { "type": "Point", "coordinates": [ 8.475248, 47.3896238 ] } },
{ "type": "Feature", "properties": { "field_1": "58", "input_string": "Gloriastrasse 98, Zürich", "kreis": "Fluntern", "latitude": "47.3757055", "longitude": "8.5593696", "postcode": "8044", "type": "Kirche ", "year": "1762.0" }, "geometry": { "type": "Point", "coordinates": [ 8.5593696, 47.3757055 ] } },
{ "type": "Feature", "properties": { "field_1": "59", "input_string": "Goldbrunnenstrasse 54, Zürich", "kreis": "Wiedikon", "latitude": "47.3679241", "longitude": "8.5167298", "postcode": "8055", "type": "Kirche", "year": "1896.0" }, "geometry": { "type": "Point", "coordinates": [ 8.5167298, 47.3679241 ] } },
{ "type": "Feature", "properties": { "field_1": "60", "input_string": "Goldschmiedstrasse 7, Zürich", "kreis": "Oberengstringen", "latitude": "47.4083258", "longitude": "8.4622151", "postcode": "8102", "type": "Kirche", "year": "1984.0" }, "geometry": { "type": "Point", "coordinates": [ 8.4622151, 47.4083258 ] } },
{ "type": "Feature", "properties": { "field_1": "61", "input_string": "Goldschmiedstrasse 8, Zürich", "kreis": "Oberengstringen", "latitude": "47.4082212", "longitude": "8.4618421", "postcode": "8102", "type": "Kirchgemeindehaus", "year": "1951.0" }, "geometry": { "type": "Point", "coordinates": [ 8.4618421, 47.4082212 ] } },
{ "type": "Feature", "properties": { "field_1": "62", "input_string": "Grütlistrasse, Zürich", "kreis": "Enge", "latitude": "47.3612336", "longitude": "8.5311988", "postcode": "8002", "type": "Kirchgemeindehaus", "year": "1923.0" }, "geometry": { "type": "Point", "coordinates": [ 8.5311988, 47.3612336 ] } },
{ "type": "Feature", "properties": { "field_1": "63", "input_string": "Grütlistrasse 14, Zürich", "kreis": "Enge", "latitude": "47.3631902", "longitude": "8.5302867", "postcode": "8002", "type": "Wohnen", "year": "1948.0" }, "geometry": { "type": "Point", "coordinates": [ 8.5302867, 47.3631902 ] } },
{ "type": "Feature", "properties": { "field_1": "64", "input_string": "Grütlistrasse 18, Zürich", "kreis": "Enge", "latitude": "47.3631205", "longitude": "8.5300877", "postcode": "8002", "type": "Wohnen", "year": "1891.0" }, "geometry": { "type": "Point", "coordinates": [ 8.5300877, 47.3631205 ] } },
{ "type": "Feature", "properties": { "field_1": "65", "input_string": "Hammerstrasse 5, Zürich", "kreis": "Neumünster", "latitude": "47.3597738", "longitude": "8.5578816", "postcode": "8008", "type": "Wohnen", "year": "1827.0" }, "geometry": { "type": "Point", "coordinates": [ 8.5578816, 47.3597738 ] } },
{ "type": "Feature", "properties": { "field_1": "66", "input_string": "Hardturmstrasse 122, Zürich", "kreis": "Industriequartier", "latitude": "47.3931789", "longitude": "8.5146315", "postcode": "8005", "type": "Gewerbehaus\/Geschäftshaus", "year": "" }, "geometry": { "type": "Point", "coordinates": [ 8.5146315, 47.3931789 ] } },
{ "type": "Feature", "properties": { "field_1": "67", "input_string": "Hätzlergasse 30, Zürich", "kreis": "Altstetten", "latitude": "47.390555", "longitude": "8.467927", "postcode": "8048", "type": "Wohnen", "year": "2002.0" }, "geometry": { "type": "Point", "coordinates": [ 8.467927, 47.390555 ] } },
{ "type": "Feature", "properties": { "field_1": "68", "input_string": "Hauriweg 19, Zürich", "kreis": "Wollishofen", "latitude": "47.3365665", "longitude": "8.5277408", "postcode": "8038", "type": "Kirchgemeindehaus", "year": "1964.0" }, "geometry": { "type": "Point", "coordinates": [ 8.5277408, 47.3365665 ] } },
{ "type": "Feature", "properties": { "field_1": "69", "input_string": "Herrligstrasse 29, Zürich", "kreis": "Altstetten", "latitude": "47.3894268", "longitude": "8.485373599999999", "postcode": "8048", "type": "Pfarrhaus ", "year": "1889.0" }, "geometry": { "type": "Point", "coordinates": [ 8.4853736, 47.3894268 ] } },
{ "type": "Feature", "properties": { "field_1": "70", "input_string": "Hirschengraben 50, Zürich", "kreis": "Predigern", "latitude": "47.3745103", "longitude": "8.5467169", "postcode": "8001", "type": "Gewerbehaus\/Geschäftshaus", "year": "" }, "geometry": { "type": "Point", "coordinates": [ 8.5467169, 47.3745103 ] } },
{ "type": "Feature", "properties": { "field_1": "71", "input_string": "Hoffeld 12, Zürich", "kreis": "Matthäus", "latitude": "47.4048518", "longitude": "8.5340656", "postcode": "8057", "type": "Wohnen", "year": "1953.0" }, "geometry": { "type": "Point", "coordinates": [ 8.5340656, 47.4048518 ] } },
{ "type": "Feature", "properties": { "field_1": "72", "input_string": "Hoffeld 2, Zürich", "kreis": "Matthäus", "latitude": "47.4049795", "longitude": "8.5336806", "postcode": "8057", "type": "Kirche ", "year": "1946.0" }, "geometry": { "type": "Point", "coordinates": [ 8.5336806, 47.4049795 ] } },
{ "type": "Feature", "properties": { "field_1": "73", "input_string": "Hohenklingenstrasse 29, Zürich", "kreis": "Höngg", "latitude": "47.4017478", "longitude": "8.4925625", "postcode": "8049", "type": "Pfarrhaus ", "year": "1929.0" }, "geometry": { "type": "Point", "coordinates": [ 8.4925625, 47.4017478 ] } },
{ "type": "Feature", "properties": { "field_1": "74", "input_string": "Höhenring 56, Zürich", "kreis": "Seebach", "latitude": "47.4204531", "longitude": "8.5412252", "postcode": "8052", "type": "Kirche ", "year": "1947.0" }, "geometry": { "type": "Point", "coordinates": [ 8.5412252, 47.4204531 ] } },
{ "type": "Feature", "properties": { "field_1": "75", "input_string": "Höhenring 62, Zürich", "kreis": "Seebach", "latitude": "47.4207325", "longitude": "8.5408723", "postcode": "8052", "type": "Gewerbehaus\/Geschäftshaus", "year": "1956.0" }, "geometry": { "type": "Point", "coordinates": [ 8.5408723, 47.4207325 ] } },
{ "type": "Feature", "properties": { "field_1": "76", "input_string": "Holderbachweg 25, Zürich", "kreis": "Affoltern", "latitude": "47.4177292", "longitude": "8.5036331", "postcode": "8046", "type": "Gewerbehaus\/Geschäftshaus", "year": "1961.0" }, "geometry": { "type": "Point", "coordinates": [ 8.5036331, 47.4177292 ] } },
{ "type": "Feature", "properties": { "field_1": "77", "input_string": "Hönggerstrasse 60, Zürich", "kreis": "Wipkingen", "latitude": "47.3930192", "longitude": "8.523052999999999", "postcode": "8037", "type": "Gewerbehaus\/Geschäftshaus", "year": "1930.0" }, "geometry": { "type": "Point", "coordinates": [ 8.523053, 47.3930192 ] } },
{ "type": "Feature", "properties": { "field_1": "78", "input_string": "Hönggerstrasse 74, Zürich", "kreis": "Wipkingen", "latitude": "47.3937251", "longitude": "8.5220184", "postcode": "8037", "type": "Pfarrhaus ", "year": "1865.0" }, "geometry": { "type": "Point", "coordinates": [ 8.5220184, 47.3937251 ] } },
{ "type": "Feature", "properties": { "field_1": "79", "input_string": "Imfeldstrasse 51, Zürich", "kreis": "Wipkingen", "latitude": "47.3894007", "longitude": "8.5312763", "postcode": "8037", "type": "Kirche ", "year": "1949.0" }, "geometry": { "type": "Point", "coordinates": [ 8.5312763, 47.3894007 ] } },
{ "type": "Feature", "properties": { "field_1": "80", "input_string": "Kämbelgasse 2, Zürich", "kreis": "Fraumünster", "latitude": "47.3704129", "longitude": "8.541728299999999", "postcode": "8001", "type": "Pfarrhaus ", "year": "1750.0" }, "geometry": { "type": "Point", "coordinates": [ 8.5417283, 47.3704129 ] } },
{ "type": "Feature", "properties": { "field_1": "81", "input_string": "Kantstrasse 21, Zürich", "kreis": "Fluntern", "latitude": "47.37657979999999", "longitude": "8.556751799999999", "postcode": "8044", "type": "Pfarrhaus ", "year": "1918.0" }, "geometry": { "type": "Point", "coordinates": [ 8.5567518, 47.376579799999988 ] } },
{ "type": "Feature", "properties": { "field_1": "82", "input_string": "Kilchbergstrasse 13, Zürich", "kreis": "Wollishofen", "latitude": "47.3432735", "longitude": "8.5329424", "postcode": "8038", "type": "Kirche ", "year": "1702.0" }, "geometry": { "type": "Point", "coordinates": [ 8.5329424, 47.3432735 ] } },
{ "type": "Feature", "properties": { "field_1": "83", "input_string": "Kilchbergstrasse 19, Zürich", "kreis": "Wollishofen", "latitude": "47.3427792", "longitude": "8.533769999999999", "postcode": "8038", "type": "Kirchgemeindehaus", "year": "1923.0" }, "geometry": { "type": "Point", "coordinates": [ 8.53377, 47.3427792 ] } },
{ "type": "Feature", "properties": { "field_1": "84", "input_string": "Kinkelstrasse 21, Zürich", "kreis": "Unterstrass", "latitude": "47.3870575", "longitude": "8.5418454", "postcode": "8006", "type": "Pfarrhaus ", "year": "1923.0" }, "geometry": { "type": "Point", "coordinates": [ 8.5418454, 47.3870575 ] } },
{ "type": "Feature", "properties": { "field_1": "85", "input_string": "Kirchgasse 13, Zürich", "kreis": "Grossmünster", "latitude": "47.3703177", "longitude": "8.5449615", "postcode": "8001", "type": "Wohnen", "year": "" }, "geometry": { "type": "Point", "coordinates": [ 8.5449615, 47.3703177 ] } },
{ "type": "Feature", "properties": { "field_1": "86", "input_string": "Kirchgasse 17, Zürich", "kreis": "Grossmünster", "latitude": "47.3704636", "longitude": "8.5454815", "postcode": "8001", "type": "Gewerbehaus\/Geschäftshaus", "year": "1812.0" }, "geometry": { "type": "Point", "coordinates": [ 8.5454815, 47.3704636 ] } },
{ "type": "Feature", "properties": { "field_1": "87", "input_string": "Lanzrainstrasse 7, Zürich", "kreis": "Oberengstringen", "latitude": "47.4066827", "longitude": "8.4669534", "postcode": "8102", "type": "Gewerbehaus\/Geschäftshaus", "year": "1993.0" }, "geometry": { "type": "Point", "coordinates": [ 8.4669534, 47.4066827 ] } },
{ "type": "Feature", "properties": { "field_1": "88", "input_string": "Lenggstrasse 71, Zürich", "kreis": "Balgrist", "latitude": "47.3546269", "longitude": "8.5738693", "postcode": "8008", "type": "Pfarrhaus ", "year": "1952.0" }, "geometry": { "type": "Point", "coordinates": [ 8.5738693, 47.3546269 ] } },
{ "type": "Feature", "properties": { "field_1": "89", "input_string": "Lenggstrasse 75, Zürich", "kreis": "Balgrist", "latitude": "47.3549152", "longitude": "8.5736641", "postcode": "8008", "type": "Kirche ", "year": "1952.0" }, "geometry": { "type": "Point", "coordinates": [ 8.5736641, 47.3549152 ] } },
{ "type": "Feature", "properties": { "field_1": "90", "input_string": "Ligusterstrasse 1, Zürich", "kreis": "Oerlikon", "latitude": "47.4054332", "longitude": "8.5457371", "postcode": "8057", "type": "Wohnen", "year": "1929.0" }, "geometry": { "type": "Point", "coordinates": [ 8.5457371, 47.4054332 ] } },
{ "type": "Feature", "properties": { "field_1": "91", "input_string": "Limmatstrasse 112, Zürich", "kreis": "Industriequartier", "latitude": "47.3837029", "longitude": "8.5332733", "postcode": "8005", "type": "Kirche ", "year": "1898.0" }, "geometry": { "type": "Point", "coordinates": [ 8.5332733, 47.3837029 ] } },
{ "type": "Feature", "properties": { "field_1": "92", "input_string": "Loogartenstrasse 24, Zürich", "kreis": "Altstetten", "latitude": "47.3899969", "longitude": "8.4740225", "postcode": "8048", "type": "Pfarrhaus ", "year": "2003.0" }, "geometry": { "type": "Point", "coordinates": [ 8.4740225, 47.3899969 ] } },
{ "type": "Feature", "properties": { "field_1": "93", "input_string": "Meiliweg 22, Zürich", "kreis": "Wiedikon", "latitude": "47.367132", "longitude": "8.5158431", "postcode": "8055", "type": "Wohnen", "year": "1933.0" }, "geometry": { "type": "Point", "coordinates": [ 8.5158431, 47.367132 ] } },
{ "type": "Feature", "properties": { "field_1": "94", "input_string": "Milchbuckstrasse 57, Zürich", "kreis": "Paulus", "latitude": "47.3941441", "longitude": "8.5429537", "postcode": "8057", "type": "Kirche ", "year": "1933.0" }, "geometry": { "type": "Point", "coordinates": [ 8.5429537, 47.3941441 ] } },
{ "type": "Feature", "properties": { "field_1": "95", "input_string": "Fraumünster, Zürich", "kreis": "", "latitude": "47.3697263", "longitude": "8.541363000000002", "postcode": "8001", "type": "Kirche", "year": "1812.0" }, "geometry": { "type": "Point", "coordinates": [ 8.541363, 47.3697263 ] } },
{ "type": "Feature", "properties": { "field_1": "96", "input_string": "Neumünsterallee 21, Zürich", "kreis": "Neumünster", "latitude": "47.3611792", "longitude": "8.5581921", "postcode": "8008", "type": "Kirchgemeindehaus", "year": "1897.0" }, "geometry": { "type": "Point", "coordinates": [ 8.5581921, 47.3611792 ] } },
{ "type": "Feature", "properties": { "field_1": "97", "input_string": "Neumünsterstrasse 10, Zürich", "kreis": "Neumünster", "latitude": "47.3606", "longitude": "8.5583752", "postcode": "8008", "type": "Kirche ", "year": "1838.0" }, "geometry": { "type": "Point", "coordinates": [ 8.5583752, 47.3606 ] } },
{ "type": "Feature", "properties": { "field_1": "98", "input_string": "Neumünsterstrasse 12, Zürich", "kreis": "Neumünster", "latitude": "47.360401", "longitude": "8.5590823", "postcode": "8008", "type": "Wohnen", "year": "1914.0" }, "geometry": { "type": "Point", "coordinates": [ 8.5590823, 47.360401 ] } },
{ "type": "Feature", "properties": { "field_1": "99", "input_string": "Oerlikonerstrasse 95, Zürich", "kreis": "Oerlikon", "latitude": "47.4056971", "longitude": "8.5463521", "postcode": "8057", "type": "Pfarrhaus ", "year": "1937.0" }, "geometry": { "type": "Point", "coordinates": [ 8.5463521, 47.4056971 ] } },
{ "type": "Feature", "properties": { "field_1": "100", "input_string": "Oerlikonerstrasse 99, Zürich", "kreis": "Oerlikon", "latitude": "47.4061332", "longitude": "8.5463155", "postcode": "8057", "type": "Kirche ", "year": "1907.0" }, "geometry": { "type": "Point", "coordinates": [ 8.5463155, 47.4061332 ] } },
{ "type": "Feature", "properties": { "field_1": "101", "input_string": "Pfarrhausstrase 10, Zürich", "kreis": "Altstetten", "latitude": "47.3871518", "longitude": "8.4849301", "postcode": "8048", "type": "Pfarrhaus ", "year": "1910.0" }, "geometry": { "type": "Point", "coordinates": [ 8.4849301, 47.3871518 ] } },
{ "type": "Feature", "properties": { "field_1": "102", "input_string": "Pfarrhausstrasse 17, Zürich", "kreis": "Altstetten", "latitude": "47.387103", "longitude": "8.486122", "postcode": "8048", "type": "Kirche", "year": "1910.0" }, "geometry": { "type": "Point", "coordinates": [ 8.486122, 47.387103 ] } },
{ "type": "Feature", "properties": { "field_1": "103", "input_string": "Pfarrhausstrasse 19, Zürich", "kreis": "Altstetten", "latitude": "47.3867897", "longitude": "8.484556", "postcode": "8048", "type": "Kirche ", "year": "1939.0" }, "geometry": { "type": "Point", "coordinates": [ 8.484556, 47.3867897 ] } },
{ "type": "Feature", "properties": { "field_1": "104", "input_string": "Pfarrweg 17, Zürich", "kreis": "Affoltern", "latitude": "47.4267725", "longitude": "8.5081395", "postcode": "8046", "type": "Pfarrhaus ", "year": "1688.0" }, "geometry": { "type": "Point", "coordinates": [ 8.5081395, 47.4267725 ] } },
{ "type": "Feature", "properties": { "field_1": "105", "input_string": "Predigerplatz 1, Zürich", "kreis": "Predigern", "latitude": "47.3738705", "longitude": "8.5455119", "postcode": "8001", "type": "Kirche ", "year": "1240.0" }, "geometry": { "type": "Point", "coordinates": [ 8.5455119, 47.3738705 ] } },
{ "type": "Feature", "properties": { "field_1": "106", "input_string": "Rainstrasse 62, Zürich", "kreis": "Wollishofen", "latitude": "47.34464089999999", "longitude": "8.5267432", "postcode": "8038", "type": "Pfarrhaus ", "year": "1923.0" }, "geometry": { "type": "Point", "coordinates": [ 8.5267432, 47.344640899999987 ] } },
{ "type": "Feature", "properties": { "field_1": "107", "input_string": "Rautistrasse 112, Zürich", "kreis": "Altstetten", "latitude": "47.3827823", "longitude": "8.4861431", "postcode": "8048", "type": "Pfarrhaus ", "year": "1950.0" }, "geometry": { "type": "Point", "coordinates": [ 8.4861431, 47.3827823 ] } },
{ "type": "Feature", "properties": { "field_1": "108", "input_string": "Rebbergstrasse 62, Zürich", "kreis": "Oberengstringen", "latitude": "47.39798769999999", "longitude": "8.5114463", "postcode": "8049", "type": "Pfarrhaus ", "year": "1953.0" }, "geometry": { "type": "Point", "coordinates": [ 8.5114463, 47.397987699999987 ] } },
{ "type": "Feature", "properties": { "field_1": "109", "input_string": "Rebbergstrasse 68, Zürich", "kreis": "Oberengstringen", "latitude": "47.3981776", "longitude": "8.5107613", "postcode": "8049", "type": "Pfarrhaus ", "year": "1951.0" }, "geometry": { "type": "Point", "coordinates": [ 8.5107613, 47.3981776 ] } },
{ "type": "Feature", "properties": { "field_1": "110", "input_string": "Regensdorferstrasse 46, Zürich", "kreis": "Höngg", "latitude": "47.4056644", "longitude": "8.4931147", "postcode": "8049", "type": "Wohnen", "year": "1931.0" }, "geometry": { "type": "Point", "coordinates": [ 8.4931147, 47.4056644 ] } },
{ "type": "Feature", "properties": { "field_1": "111", "input_string": "Riedhaldenstrasse 1, Zürich", "kreis": "Affoltern", "latitude": "47.4145994", "longitude": "8.5187677", "postcode": "8046", "type": "Kirchgemeindehaus", "year": "1937.0" }, "geometry": { "type": "Point", "coordinates": [ 8.5187677, 47.4145994 ] } },
{ "type": "Feature", "properties": { "field_1": "112", "input_string": "Riedhaldenstrasse 3, Zürich", "kreis": "Affoltern", "latitude": "47.4147366", "longitude": "8.5179534", "postcode": "8046", "type": "Kirche ", "year": "1973.0" }, "geometry": { "type": "Point", "coordinates": [ 8.5179534, 47.4147366 ] } },
{ "type": "Feature", "properties": { "field_1": "113", "input_string": "Riedhaldenstrasse 5, Zürich", "kreis": "Affoltern", "latitude": "47.415048", "longitude": "8.517643099999999", "postcode": "8046", "type": "Pfarrhaus", "year": "1949.0" }, "geometry": { "type": "Point", "coordinates": [ 8.5176431, 47.415048 ] } },
{ "type": "Feature", "properties": { "field_1": "114", "input_string": "Riedhaldenstrasse 7, Zürich", "kreis": "Affoltern", "latitude": "47.4151832", "longitude": "8.5172626", "postcode": "8046", "type": "Wohnen", "year": "1972.0" }, "geometry": { "type": "Point", "coordinates": [ 8.5172626, 47.4151832 ] } },
{ "type": "Feature", "properties": { "field_1": "115", "input_string": "Riedhofweg 2, Zürich", "kreis": "Höngg", "latitude": "47.4087474", "longitude": "8.4834633", "postcode": "8049", "type": "Baurecht", "year": "" }, "geometry": { "type": "Point", "coordinates": [ 8.4834633, 47.4087474 ] } },
{ "type": "Feature", "properties": { "field_1": "116", "input_string": "Rindermarkt 14, Zürich", "kreis": "Predigern", "latitude": "47.3722845", "longitude": "8.5447414", "postcode": "8001", "type": "Gewerbehaus\/Geschäftshaus", "year": "1637.0" }, "geometry": { "type": "Point", "coordinates": [ 8.5447414, 47.3722845 ] } },
{ "type": "Feature", "properties": { "field_1": "117", "input_string": "Rosengartenstrasse 1, Zürich", "kreis": "Wipkingen", "latitude": "47.3930983", "longitude": "8.524206999999999", "postcode": "8037", "type": "Kirchgemeindehaus", "year": "1931.0" }, "geometry": { "type": "Point", "coordinates": [ 8.524207, 47.3930983 ] } },
{ "type": "Feature", "properties": { "field_1": "118", "input_string": "Rötelstrasse 102, Zürich", "kreis": "Wipkingen", "latitude": "47.3956993", "longitude": "8.5326454", "postcode": "8057", "type": "Baurecht", "year": "" }, "geometry": { "type": "Point", "coordinates": [ 8.5326454, 47.3956993 ] } },
{ "type": "Feature", "properties": { "field_1": "119", "input_string": "Rötelstrasse 96, Zürich", "kreis": "Wipkingen", "latitude": "47.3955514", "longitude": "8.5323614", "postcode": "8057", "type": "Baurecht", "year": "" }, "geometry": { "type": "Point", "coordinates": [ 8.5323614, 47.3955514 ] } },
{ "type": "Feature", "properties": { "field_1": "120", "input_string": "Rötelstrasse 98, Zürich", "kreis": "Wipkingen", "latitude": "47.3957679", "longitude": "8.5323465", "postcode": "8057", "type": "Wohnen", "year": "1961.0" }, "geometry": { "type": "Point", "coordinates": [ 8.5323465, 47.3957679 ] } },
{ "type": "Feature", "properties": { "field_1": "121", "input_string": "Russenweg 39, Zürich", "kreis": "Balgrist", "latitude": "47.3553347", "longitude": "8.574177599999999", "postcode": "8008", "type": "Wohnen", "year": "1959.0" }, "geometry": { "type": "Point", "coordinates": [ 8.5741776, 47.3553347 ] } },
{ "type": "Feature", "properties": { "field_1": "122", "input_string": "Russenweg 40, Zürich", "kreis": "Balgrist", "latitude": "47.3552261", "longitude": "8.5738915", "postcode": "8008", "type": "Kirchgemeindehaus ", "year": "" }, "geometry": { "type": "Point", "coordinates": [ 8.5738915, 47.3552261 ] } },
{ "type": "Feature", "properties": { "field_1": "123", "input_string": "Rütistrasse 9, Zürich", "kreis": "Hottingen", "latitude": "47.369288", "longitude": "8.5609413", "postcode": "8032", "type": "Pfarrhaus ", "year": "1928.0" }, "geometry": { "type": "Point", "coordinates": [ 8.5609413, 47.369288 ] } },
{ "type": "Feature", "properties": { "field_1": "124", "input_string": "Saatlenstrasse 238, Zürich", "kreis": "Saatlen", "latitude": "47.4106147", "longitude": "8.5633764", "postcode": "8050", "type": "Kirche ", "year": "1963.0" }, "geometry": { "type": "Point", "coordinates": [ 8.5633764, 47.4106147 ] } },
{ "type": "Feature", "properties": { "field_1": "125", "input_string": "Scheuchzerstrasse 182, Zürich", "kreis": "Paulus", "latitude": "47.3945807", "longitude": "8.5424384", "postcode": "8057", "type": "Pfarrhaus", "year": "" }, "geometry": { "type": "Point", "coordinates": [ 8.5424384, 47.3945807 ] } },
{ "type": "Feature", "properties": { "field_1": "126", "input_string": "Schienhutgasse 6, Zürich", "kreis": "Predigern", "latitude": "47.37528830000001", "longitude": "8.546838", "postcode": "8001", "type": "Pfarrhaus ", "year": "1863.0" }, "geometry": { "type": "Point", "coordinates": [ 8.546838, 47.3752883 ] } },
{ "type": "Feature", "properties": { "field_1": "127", "input_string": "Schimmelstrasse 8, Zürich", "kreis": "Aussersihl", "latitude": "47.37015400000001", "longitude": "8.5253629", "postcode": "8003", "type": "Wohnen", "year": "1938.0" }, "geometry": { "type": "Point", "coordinates": [ 8.5253629, 47.370154 ] } },
{ "type": "Feature", "properties": { "field_1": "128", "input_string": "Schlossgasse 10, Zürich", "kreis": "Wiedikon", "latitude": "47.369359", "longitude": "8.5197679", "postcode": "8003", "type": "Kirche ", "year": "1790.0" }, "geometry": { "type": "Point", "coordinates": [ 8.5197679, 47.369359 ] } },
{ "type": "Feature", "properties": { "field_1": "129", "input_string": "Schlüsselgasse 18, Zürich", "kreis": "St. Peter", "latitude": "47.3713506", "longitude": "8.5410437", "postcode": "8001", "type": "Wohnen", "year": "1595.0" }, "geometry": { "type": "Point", "coordinates": [ 8.5410437, 47.3713506 ] } },
{ "type": "Feature", "properties": { "field_1": "130", "input_string": "Schweighofstrasse 195, Zürich", "kreis": "Friesenberg", "latitude": "47.35958919999999", "longitude": "8.507096299999999", "postcode": "8045", "type": "Pfarrhaus ", "year": "1971.0" }, "geometry": { "type": "Point", "coordinates": [ 8.5070963, 47.359589199999988 ] } },
{ "type": "Feature", "properties": { "field_1": "131", "input_string": "Schweighofstrasse 231, Zürich", "kreis": "Friesenberg", "latitude": "47.3609135", "longitude": "8.5060544", "postcode": "8045", "type": "Kirche ", "year": "" }, "geometry": { "type": "Point", "coordinates": [ 8.5060544, 47.3609135 ] } },
{ "type": "Feature", "properties": { "field_1": "132", "input_string": "Seebacherstrasse 60, Zürich", "kreis": "Seebach", "latitude": "47.4233454", "longitude": "8.5426918", "postcode": "8052", "type": "Pfarrhaus ", "year": "1990.0" }, "geometry": { "type": "Point", "coordinates": [ 8.5426918, 47.4233454 ] } },
{ "type": "Feature", "properties": { "field_1": "133", "input_string": "Seefeldstrasse 91, Zürich", "kreis": "Neumünster", "latitude": "47.3596966", "longitude": "8.553776", "postcode": "8008", "type": "Kirchgemeindehaus ", "year": "1973.0" }, "geometry": { "type": "Point", "coordinates": [ 8.553776, 47.3596966 ] } },
{ "type": "Feature", "properties": { "field_1": "134", "input_string": "Segantinistrasse 154, Zürich", "kreis": "Höngg", "latitude": "47.4077133", "longitude": "8.4918528", "postcode": "8049", "type": "Pfarrhaus ", "year": "1949.0" }, "geometry": { "type": "Point", "coordinates": [ 8.4918528, 47.4077133 ] } },
{ "type": "Feature", "properties": { "field_1": "135", "input_string": "Spirgartenstrasse 7, Zürich", "kreis": "Altstetten", "latitude": "47.3872801", "longitude": "8.4845682", "postcode": "8048", "type": "Sonstiges", "year": "1910.0" }, "geometry": { "type": "Point", "coordinates": [ 8.4845682, 47.3872801 ] } },
{ "type": "Feature", "properties": { "field_1": "136", "input_string": "St. Peterhofstatt 2, Zürich", "kreis": "St. Peter", "latitude": "47.3714646", "longitude": "8.5404068", "postcode": "8001", "type": "Pfarrhaus + Kirche", "year": "1523.0" }, "geometry": { "type": "Point", "coordinates": [ 8.5404068, 47.3714646 ] } },
{ "type": "Feature", "properties": { "field_1": "137", "input_string": "St. Peterhofstatt 6, Zürich", "kreis": "St. Peter", "latitude": "47.3717777", "longitude": "8.5405891", "postcode": "8001", "type": "Kirchgemeindehaus", "year": "1922.0" }, "geometry": { "type": "Point", "coordinates": [ 8.5405891, 47.3717777 ] } },
{ "type": "Feature", "properties": { "field_1": "138", "input_string": "St. Peterstrasse 3, Zürich", "kreis": "St. Peter", "latitude": "47.3711522", "longitude": "8.5401524", "postcode": "8001", "type": "Baurecht", "year": "" }, "geometry": { "type": "Point", "coordinates": [ 8.5401524, 47.3711522 ] } },
{ "type": "Feature", "properties": { "field_1": "139", "input_string": "Stapferstrasse 60, Zürich", "kreis": "Oberstrass", "latitude": "47.3838316", "longitude": "8.5471293", "postcode": "8006", "type": "Pfarrhaus ", "year": "" }, "geometry": { "type": "Point", "coordinates": [ 8.5471293, 47.3838316 ] } },
{ "type": "Feature", "properties": { "field_1": "140", "input_string": "Stapferstrasse 62, Zürich", "kreis": "Oberstrass", "latitude": "47.3837204", "longitude": "8.5473708", "postcode": "8006", "type": "Sonstiges", "year": "1972.0" }, "geometry": { "type": "Point", "coordinates": [ 8.5473708, 47.3837204 ] } },
{ "type": "Feature", "properties": { "field_1": "141", "input_string": "Stapferstrassse 58, Zürich", "kreis": "Oberstrass", "latitude": "47.3838979", "longitude": "8.5468949", "postcode": "8006", "type": "Kirche ", "year": "1908.0" }, "geometry": { "type": "Point", "coordinates": [ 8.5468949, 47.3838979 ] } },
{ "type": "Feature", "properties": { "field_1": "142", "input_string": "Stauffacherstrasse 34, Zürich", "kreis": "Aussersihl", "latitude": "47.3738961", "longitude": "8.5291559", "postcode": "8004", "type": "Kirche", "year": "1900.0" }, "geometry": { "type": "Point", "coordinates": [ 8.5291559, 47.3738961 ] } },
{ "type": "Feature", "properties": { "field_1": "143", "input_string": "Stauffacherstrasse 8, Zürich", "kreis": "Aussersihl", "latitude": "47.3719235", "longitude": "8.5299727", "postcode": "8004", "type": "Kirchgemeindehaus ", "year": "1973.0" }, "geometry": { "type": "Point", "coordinates": [ 8.5299727, 47.3719235 ] } },
{ "type": "Feature", "properties": { "field_1": "144", "input_string": "Stegengasse 4, Zürich", "kreis": "St. Peter", "latitude": "47.3708851", "longitude": "8.541749099999999", "postcode": "8001", "type": "Wohnen", "year": "1812.0" }, "geometry": { "type": "Point", "coordinates": [ 8.5417491, 47.3708851 ] } },
{ "type": "Feature", "properties": { "field_1": "145", "input_string": "Stettbachstrasse 56, Zürich", "kreis": "Schwamendingen", "latitude": "47.40296559999999", "longitude": "8.5738532", "postcode": "8051", "type": "Kirchgemeindehaus", "year": "1953.0" }, "geometry": { "type": "Point", "coordinates": [ 8.5738532, 47.402965599999987 ] } },
{ "type": "Feature", "properties": { "field_1": "146", "input_string": "Stettbachstrasse 51, Zürich", "kreis": "Schwamendingen", "latitude": "47.4035175", "longitude": "8.5735337", "postcode": "8051", "type": "Kirche", "year": "1826.0" }, "geometry": { "type": "Point", "coordinates": [ 8.5735337, 47.4035175 ] } },
{ "type": "Feature", "properties": { "field_1": "147", "input_string": "Stöckengasse 26, Zürich", "kreis": "Affoltern", "latitude": "47.42248499999999", "longitude": "8.5097498", "postcode": "8046", "type": "Wohnen", "year": "1931.0" }, "geometry": { "type": "Point", "coordinates": [ 8.5097498, 47.422485 ] } },
{ "type": "Feature", "properties": { "field_1": "148", "input_string": "Süsslerenstrasse 20, Zürich", "kreis": "Albisrieden", "latitude": "47.3762182", "longitude": "8.4927308", "postcode": "8047", "type": "Pfarrhaus", "year": "" }, "geometry": { "type": "Point", "coordinates": [ 8.4927308, 47.3762182 ] } },
{ "type": "Feature", "properties": { "field_1": "149", "input_string": "Talchernsteig 3, Zürich", "kreis": "Höngg", "latitude": "47.40282020000001", "longitude": "8.4873747", "postcode": "8049", "type": "Pfarrhaus ", "year": "1932.0" }, "geometry": { "type": "Point", "coordinates": [ 8.4873747, 47.4028202 ] } },
{ "type": "Feature", "properties": { "field_1": "150", "input_string": "Triemlistrasse 24, Zürich", "kreis": "Albisrieden", "latitude": "47.3731144", "longitude": "8.4846684", "postcode": "8047", "type": "Pfarrhaus ", "year": "1933.0" }, "geometry": { "type": "Point", "coordinates": [ 8.4846684, 47.3731144 ] } },
{ "type": "Feature", "properties": { "field_1": "151", "input_string": "Turnerstrasse 44, Zürich", "kreis": "Unterstrass", "latitude": "47.3870033", "longitude": "8.5428112", "postcode": "8006", "type": "Pfarrhaus ", "year": "1892.0" }, "geometry": { "type": "Point", "coordinates": [ 8.5428112, 47.3870033 ] } },
{ "type": "Feature", "properties": { "field_1": "152", "input_string": "Turnerstrasse 45, Zürich", "kreis": "Unterstrass", "latitude": "47.38711430000001", "longitude": "8.5422768", "postcode": "8006", "type": "Pfarrhaus", "year": "" }, "geometry": { "type": "Point", "coordinates": [ 8.5422768, 47.3871143 ] } },
{ "type": "Feature", "properties": { "field_1": "153", "input_string": "Turnerstrasse 45, Zürich", "kreis": "Unterstrass", "latitude": "47.38711430000001", "longitude": "8.5422768", "postcode": "8006", "type": "Kirche ", "year": "1885.0" }, "geometry": { "type": "Point", "coordinates": [ 8.5422768, 47.3871143 ] } },
{ "type": "Feature", "properties": { "field_1": "154", "input_string": "Voltastrasse 58, Zürich", "kreis": "Fluntern", "latitude": "47.3792754", "longitude": "8.5543651", "postcode": "8044", "type": "Wohnen", "year": "1969.0" }, "geometry": { "type": "Point", "coordinates": [ 8.5543651, 47.3792754 ] } },
{ "type": "Feature", "properties": { "field_1": "155", "input_string": "Wegackerstrasse 42, Zürich", "kreis": "Leimbach", "latitude": "47.3329152", "longitude": "8.5161681", "postcode": "8041", "type": "Kirche ", "year": "1971.0" }, "geometry": { "type": "Point", "coordinates": [ 8.5161681, 47.3329152 ] } },
{ "type": "Feature", "properties": { "field_1": "156", "input_string": "Wehntalerstrasse 124, Zürich", "kreis": "Matthäus", "latitude": "47.4044937", "longitude": "8.533885999999999", "postcode": "8057", "type": "Kirchgemeindehaus", "year": "1978.0" }, "geometry": { "type": "Point", "coordinates": [ 8.533886, 47.4044937 ] } },
{ "type": "Feature", "properties": { "field_1": "157", "input_string": "Wibichstrasse 39, Zürich", "kreis": "Wipkingen", "latitude": "47.3969829", "longitude": "8.5282385", "postcode": "8037", "type": "Kirche ", "year": "1909.0" }, "geometry": { "type": "Point", "coordinates": [ 8.5282385, 47.3969829 ] } },
{ "type": "Feature", "properties": { "field_1": "158", "input_string": "Wiedingstrasse 14, Zürich", "kreis": "Wiedikon", "latitude": "47.3678225", "longitude": "8.517424199999999", "postcode": "8055", "type": "Wohnen", "year": "1913.0" }, "geometry": { "type": "Point", "coordinates": [ 8.5174242, 47.3678225 ] } },
{ "type": "Feature", "properties": { "field_1": "159", "input_string": "Wiedingstrasse 3, Zürich", "kreis": "Wiedikon", "latitude": "47.3681847", "longitude": "8.517765299999999", "postcode": "8055", "type": "Pfarrhaus ", "year": "1910.0" }, "geometry": { "type": "Point", "coordinates": [ 8.5177653, 47.3681847 ] } },
{ "type": "Feature", "properties": { "field_1": "160", "input_string": "Winterthurerstrasse 25, Zürich", "kreis": "Oberstrass", "latitude": "47.3864558", "longitude": "8.547382599999999", "postcode": "8006", "type": "Kirchgemeindehaus", "year": "1958.0" }, "geometry": { "type": "Point", "coordinates": [ 8.5473826, 47.3864558 ] } },
{ "type": "Feature", "properties": { "field_1": "161", "input_string": "Winterthurerstrasse 473, Zürich", "kreis": "Schwamendingen", "latitude": "47.4041293", "longitude": "8.569251099999999", "postcode": "8051", "type": "Wohnen", "year": "1845.0" }, "geometry": { "type": "Point", "coordinates": [ 8.5692511, 47.4041293 ] } },
{ "type": "Feature", "properties": { "field_1": "162", "input_string": "Wotanstrasse 4, Zürich", "kreis": "Neumünster", "latitude": "47.3642081", "longitude": "8.5627456", "postcode": "8032", "type": "Pfarrhaus ", "year": "1911.0" }, "geometry": { "type": "Point", "coordinates": [ 8.5627456, 47.3642081 ] } },
{ "type": "Feature", "properties": { "field_1": "163", "input_string": "Wunderlistrasse 25, Zürich", "kreis": "Wipkingen", "latitude": "47.3968915", "longitude": "8.5222619", "postcode": "8037", "type": "Wohnen", "year": "1924.0" }, "geometry": { "type": "Point", "coordinates": [ 8.5222619, 47.3968915 ] } },
{ "type": "Feature", "properties": { "field_1": "164", "input_string": "Wydäckerring 144, Zürich", "kreis": "Albisrieden", "latitude": "47.370115", "longitude": "8.4932324", "postcode": "8047", "type": "Pfarrhaus ", "year": "1953.0" }, "geometry": { "type": "Point", "coordinates": [ 8.4932324, 47.370115 ] } },
{ "type": "Feature", "properties": { "field_1": "165", "input_string": "Wydlerweg 23, Zürich", "kreis": "Albisrieden", "latitude": "47.3769143", "longitude": "8.4857294", "postcode": "8047", "type": "Baurecht", "year": "" }, "geometry": { "type": "Point", "coordinates": [ 8.4857294, 47.3769143 ] } },
{ "type": "Feature", "properties": { "field_1": "166", "input_string": "Zehntenhausstrasse 94, Zürich", "kreis": "Affoltern", "latitude": "47.4245257", "longitude": "8.5086846", "postcode": "8046", "type": "Kirche ", "year": "1683.0" }, "geometry": { "type": "Point", "coordinates": [ 8.5086846, 47.4245257 ] } },
{ "type": "Feature", "properties": { "field_1": "167", "input_string": "Zehntenhausstrasse 96, Zürich", "kreis": "Affoltern", "latitude": "47.4247841", "longitude": "8.508705899999999", "postcode": "8046", "type": "Sonstiges", "year": "1909.0" }, "geometry": { "type": "Point", "coordinates": [ 8.5087059, 47.4247841 ] } },
{ "type": "Feature", "properties": { "field_1": "168", "input_string": "Zollikerstrasse 196, Zürich", "kreis": "Neumünster", "latitude": "47.3507849", "longitude": "8.5635392", "postcode": "8008", "type": "Pfarrhaus ", "year": "1888.0" }, "geometry": { "type": "Point", "coordinates": [ 8.5635392, 47.3507849 ] } },
{ "type": "Feature", "properties": { "field_1": "169", "input_string": "Zollikerstrasse 74, Zürich", "kreis": "Neumünster", "latitude": "47.3598816", "longitude": "8.556970399999999", "postcode": "8008", "type": "Kirche ", "year": "1910.0" }, "geometry": { "type": "Point", "coordinates": [ 8.5569704, 47.3598816 ] } },
{ "type": "Feature", "properties": { "field_1": "170", "input_string": "Zürichholzstrasse 4, Zürich", "kreis": "Oerlikon", "latitude": "47.40452459999999", "longitude": "8.5419819", "postcode": "8057", "type": "Pfarrhaus ", "year": "1922.0" }, "geometry": { "type": "Point", "coordinates": [ 8.5419819, 47.404524599999988 ] } },
{ "type": "Feature", "properties": { "field_1": "171", "input_string": "Zwingliplatz 4, Zürich", "kreis": "Grossmünster", "latitude": "47.3704062", "longitude": "8.544703799999999", "postcode": "8001", "type": "Pfarrhaus ", "year": "1812.0" }, "geometry": { "type": "Point", "coordinates": [ 8.5447038, 47.3704062 ] } }
]
}
